NORAD_CAT_ID,OBJECT_NAME,OBJECT_TYPE,EPOCH,MEAN_MOTION,ECCENTRICITY,INCLINATION,RA_OF_ASC_NODE,ARG_OF_PERICENTER,MEAN_ANOMALY,BSTAR,MEAN_MOTION_DOT,MEAN_MOTION_DDOT,TLE_LINE0,TLE_LINE1,TLE_LINE2,SEMIMAJOR_AXIS,PERIOD,APOGEE,PERIGEE,DECAYED
52372.0,STARLINK-3796,PAYLOAD,2024-02-06 03:18:27,15.08842726,0.0001668,53.2196,12.3521,110.9066,249.2105,-9.8012e-06,-4.44e-06,0.0,0 STARLINK-3796,1 52372U 22045AT  24037.13782042 -.00000444  00000-0 -98012-5 0  9994,2 52372  53.2196  12.3521 0001668 110.9066 249.2105 15.08842726100798,6917.872,95.437,540.891,538.583,0.0
52372.0,STARLINK-3796,PAYLOAD,2024-02-06 08:04:37,15.08839411,0.0001323,53.219,11.4621,89.7204,270.3939,-6.5485e-05,-1.33e-05,0.0,0 STARLINK-3796,1 52372U 22045AT  24037.33654498 -.00001330  00000-0 -65485-4 0  9991,2 52372  53.2190  11.4621 0001323  89.7204 270.3939 15.08839411100829,6917.882,95.438,540.662,538.832,0.0
52372.0,STARLINK-3796,PAYLOAD,2024-02-07 04:44:37,15.08847244,0.0001743,53.2195,7.5922,100.1139,260.005,3.8372e-05,3.23e-06,0.0,0 STARLINK-3796,1 52372U 22045AT  24038.19765830  .00000323  00000-0  38372-4 0  9993,2 52372  53.2195   7.5922 0001743 100.1139 260.0050 15.08847244100952,6917.858,95.437,540.929,538.517,0.0
52372.0,STARLINK-3796,PAYLOAD,2024-02-07 14:16:56,15.08849959,0.0001504,53.219,5.8077,82.7083,277.408,1.8759e-05,1.1e-07,0.0,0 STARLINK-3796,1 52372U 22045AT  24038.59509570  .00000011  00000-0  18759-4 0  9995,2 52372  53.2190   5.8077 0001504  82.7083 277.4080 15.08849959101015,6917.85,95.437,540.755,538.675,0.0
52372.0,STARLINK-3796,PAYLOAD,2024-02-07 22:13:53,15.08832304,0.0001775,53.2189,4.3265,85.0598,275.0597,5.7378e-05,6.25e-06,0.0,0 STARLINK-3796,1 52372U 22045AT  24038.92630861  .00000625  00000-0  57378-4 0  9991,2 52372  53.2189   4.3265 0001775  85.0598 275.0597 15.08832304101061,6917.904,95.438,540.997,538.541,0.0
52372.0,STARLINK-3796,PAYLOAD,2024-02-08 04:35:25,15.08831491,0.0001423,53.2192,3.1387,91.104,269.0115,3.5918e-05,2.84e-06,0.0,0 STARLINK-3796,1 52372U 22045AT  24039.19127058  .00000284  00000-0  35918-4 0  9997,2 52372  53.2192   3.1387 0001423  91.1040 269.0115 15.08831491101107,6917.906,95.438,540.756,538.787,0.0
52372.0,STARLINK-3796,PAYLOAD,2024-02-09 02:50:49,15.08847323,0.0001646,53.2196,358.9763,113.2625,246.854,-3.3326e-05,-8.19e-06,0.0,0 STARLINK-3796,1 52372U 22045AT  24040.11862623 -.00000819  00000-0 -33326-4 0  9992,2 52372  53.2196 358.9763 0001646 113.2625 246.8540 15.08847323101243,6917.858,95.437,540.862,538.584,0.0
52372.0,STARLINK-3796,PAYLOAD,2024-02-09 20:20:04,15.08826027,0.0001529,53.2185,355.7015,95.2439,264.8727,0.00027549,4.098e-05,0.0,0 STARLINK-3796,1 52372U 22045AT  24040.84727171  .00004098  00000-0  27549-3 0  9990,2 52372  53.2185 355.7015 0001529  95.2439 264.8727 15.08826027101355,6917.923,95.438,540.846,538.73,0.0
52372.0,STARLINK-3796,PAYLOAD,2024-02-10 05:52:23,15.08838428,0.0001482,53.2193,353.9131,82.8614,277.2546,0.00012487,1.7e-05,0.0,0 STARLINK-3796,1 52372U 22045AT  24041.24471084  .00001700  00000-0  12487-3 0  9996,2 52372  53.2193 353.9131 0001482  82.8614 277.2546 15.08838428101410,6917.885,95.438,540.775,538.725,0.0
52372.0,STARLINK-3796,PAYLOAD,2024-02-11 04:07:45,15.08854361,0.0001488,53.2195,349.7499,99.2036,260.9124,0.00019141,2.761e-05,0.0,0 STARLINK-3796,1 52372U 22045AT  24042.17205960  .00002761  00000-0  19141-3 0  9999,2 52372  53.2195 349.7499 0001488  99.2036 260.9124 15.08854361101558,6917.836,95.437,540.731,538.672,0.0
52372.0,STARLINK-3796,PAYLOAD,2024-02-11 20:01:38,15.08838958,0.0001592,53.2202,346.7812,85.3122,274.8052,7.7237e-05,9.41e-06,0.0,0 STARLINK-3796,1 52372U 22045AT  24042.83447103  .00000941  00000-0  77237-4 0  9998,2 52372  53.2202 346.7812 0001592  85.3122 274.8052 15.08838958101650,6917.884,95.438,540.85,538.647,0.0
52372.0,STARLINK-3796,PAYLOAD,2024-02-12 05:33:56,15.08851695,0.0001514,53.2193,344.9921,110.4071,249.7084,0.00017976,2.575e-05,0.0,0 STARLINK-3796,1 52372U 22045AT  24043.23190033  .00002575  00000-0  17976-3 0  9998,2 52372  53.2193 344.9921 0001514 110.4071 249.7084 15.08851695101713,6917.845,95.437,540.757,538.662,0.0
52372.0,STARLINK-3796,PAYLOAD,2024-02-13 00:38:34,15.08843974,0.0001518,53.2212,341.4248,75.8929,284.2232,-4.8642e-05,-1.062e-05,0.0,0 STARLINK-3796,1 52372U 22045AT  24044.02679261 -.00001062  00000-0 -48642-4 0  9998,2 52372  53.2212 341.4248 0001518  75.8929 284.2232 15.08843974101832,6917.868,95.437,540.783,538.683,0.0
52372.0,STARLINK-3796,PAYLOAD,2024-02-13 05:24:43,15.08848672,0.0001602,53.2207,340.5266,102.3675,257.7497,-9.6153e-06,-4.41e-06,0.0,0 STARLINK-3796,1 52372U 22045AT  24044.22550661 -.00000441  00000-0 -96153-5 0  9993,2 52372  53.2207 340.5266 0001602 102.3675 257.7497 15.08848672101865,6917.854,95.437,540.827,538.611,0.0
52372.0,STARLINK-3796,PAYLOAD,2024-02-13 19:43:12,15.0884334,0.0001703,53.219,337.8506,129.024,231.0904,-9.0642e-05,-1.73e-05,0.0,0 STARLINK-3796,1 52372U 22045AT  24044.82167366 -.00001730  00000-0 -90642-4 0  9993,2 52372  53.2190 337.8506 0001703 129.0240 231.0904 15.08843340101953,6917.87,95.437,540.913,538.557,0.0
52372.0,STARLINK-3796,PAYLOAD,2024-02-13 22:53:58,15.08846364,0.0001735,53.2182,337.2588,126.6237,233.4915,-2.3999e-05,-6.7e-06,0.0,0 STARLINK-3796,1 52372U 22045AT  24044.95414869 -.00000670  00000-0 -23999-4 0  9993,2 52372  53.2182 337.2588 0001735 126.6237 233.4915 15.08846364101971,6917.861,95.437,540.926,538.526,0.0
52372.0,STARLINK-3796,PAYLOAD,2024-02-14 05:15:30,15.08851816,0.0001262,53.2187,336.0692,116.2743,243.8378,3.633e-05,2.91e-06,0.0,0 STARLINK-3796,1 52372U 22045AT  24045.21910443  .00000291  00000-0  36330-4 0  9992,2 52372  53.2187 336.0692 0001262 116.2743 243.8378 15.08851816102013,6917.844,95.437,540.582,538.836,0.0
52372.0,STARLINK-3796,PAYLOAD,2024-02-14 19:33:59,15.08836467,0.0001166,53.2187,333.3892,132.7558,227.3532,3.3957e-05,2.53e-06,0.0,0 STARLINK-3796,1 52372U 22045AT  24045.81527449  .00000253  00000-0  33957-4 0  9998,2 52372  53.2187 333.3892 0001166 132.7558 227.3532 15.08836467102109,6917.891,95.438,540.563,538.95,0.0
52372.0,STARLINK-3796,PAYLOAD,2024-02-14 22:44:46,15.08834062,0.0001791,53.2187,332.7944,132.0569,228.0576,7.7995e-05,9.53e-06,0.0,0 STARLINK-3796,1 52372U 22045AT  24045.94775498  .00000953  00000-0  77995-4 0  9998,2 52372  53.2187 332.7944 0001791 132.0569 228.0576 15.08834062102126,6917.899,95.438,541.003,538.525,0.0
52372.0,STARLINK-3796,PAYLOAD,2024-02-15 05:06:18,15.08845173,9.6e-05,53.2173,331.6119,109.078,251.0316,6.1775e-05,6.96e-06,0.0,0 STARLINK-3796,1 52372U 22045AT  24046.21270995  .00000696  00000-0  61775-4 0  9994,2 52372  53.2173 331.6119 0000960 109.0780 251.0316 15.08845173102166,6917.865,95.437,540.394,539.065,0.0
52372.0,STARLINK-3796,PAYLOAD,2024-02-15 22:35:34,15.08808173,0.0001153,53.2175,328.3391,85.7589,274.3535,-0.00040034,-6.648e-05,0.0,0 STARLINK-3796,1 52372U 22045AT  24046.94137657 -.00006648  00000-0 -40034-3 0  9990,2 52372  53.2175 328.3391 0001153  85.7589 274.3535 15.08808173102277,6917.978,95.44,540.64,539.045,0.0
52372.0,STARLINK-3796,PAYLOAD,2024-02-16 00:10:59,15.08772296,0.0001346,53.2175,328.0419,85.827,274.2876,-0.00091658,-0.00014818,0.0,0 STARLINK-3796,1 52372U 22045AT  24047.00763579 -.00014818  00000-0 -91658-3 0  9992,2 52372  53.2175 328.0419 0001346  85.8270 274.2876 15.08772296102281,6918.087,95.442,540.884,539.021,0.0
52372.0,STARLINK-3796,PAYLOAD,2024-02-16 11:18:40,15.08819236,0.000127,53.2179,325.9609,81.072,279.0416,-0.00014853,-2.65e-05,0.0,0 STARLINK-3796,1 52372U 22045AT  24047.47130034 -.00002650  00000-0 -14853-3 0  9990,2 52372  53.2179 325.9609 0001270  81.0720 279.0416 15.08819236102353,6917.944,95.439,540.687,538.93,0.0
52372.0,STARLINK-3796,PAYLOAD,2024-02-16 19:15:35,15.08834794,6.17e-05,53.2161,324.4725,75.6655,284.4405,0.00014759,2.062e-05,0.0,0 STARLINK-3796,1 52372U 22045AT  24047.80249303  .00002062  00000-0  14759-3 0  9997,2 52372  53.2161 324.4725 0000617  75.6655 284.4405 15.08834794102407,6917.896,95.438,540.188,539.334,0.0
52372.0,STARLINK-3796,PAYLOAD,2024-02-16 22:26:20,15.08852041,0.0001452,53.2186,323.8848,106.1963,253.9189,0.00023179,3.404e-05,0.0,0 STARLINK-3796,1 52372U 22045AT  24047.93496205  .00003404  00000-0  23179-3 0  9993,2 52372  53.2186 323.8848 0001452 106.1963 253.9189 15.08852041102420,6917.844,95.437,540.713,538.704,0.0
52372.0,STARLINK-3796,PAYLOAD,2024-02-17 00:01:43,15.08854296,0.000158,53.2192,323.5881,105.145,254.9717,0.00025118,3.713e-05,0.0,0 STARLINK-3796,1 52372U 22045AT  24048.00120042  .00003713  00000-0  25118-3 0  9993,2 52372  53.2192 323.5881 0001580 105.1450 254.9717 15.08854296102436,6917.837,95.437,540.795,538.609,0.0
52372.0,STARLINK-3796,PAYLOAD,2024-02-17 22:17:08,15.08837242,0.0002288,53.2193,319.422,48.2892,311.8296,0.00038411,5.83e-05,0.0,0 STARLINK-3796,1 52372U 22045AT  24048.92857320  .00005830  00000-0  38411-3 0  9992,2 52372  53.2193 319.4220 0002288  48.2892 311.8296 15.08837242102573,6917.889,95.438,541.337,538.171,0.0
52372.0,STARLINK-3796,PAYLOAD,2024-02-18 01:27:55,15.08819207,0.0001983,53.2187,318.8289,70.4225,289.6981,0.00063162,9.773e-05,0.0,0 STARLINK-3796,1 52372U 22045AT  24049.06105758  .00009773  00000-0  63162-3 0  9990,2 52372  53.2187 318.8289 0001983  70.4225 289.6981 15.08819207102598,6917.944,95.439,541.181,538.437,0.0
52372.0,STARLINK-3796,PAYLOAD,2024-02-18 11:00:13,15.08845163,9.96e-05,53.2172,317.0431,91.0448,269.0658,0.00022848,3.351e-05,0.0,0 STARLINK-3796,1 52372U 22045AT  24049.45848710  .00003351  00000-0  22848-3 0  9997,2 52372  53.2172 317.0431 0000996  91.0448 269.0658 15.08845163102651,6917.865,95.437,540.419,539.041,0.0
52372.0,STARLINK-3796,PAYLOAD,2024-02-18 22:07:54,15.08857053,0.0001615,53.2195,314.9643,88.8559,271.2618,-1.0224e-05,-4.51e-06,0.0,0 STARLINK-3796,1 52372U 22045AT  24049.92216335 -.00000451  00000-0 -10224-4 0  9997,2 52372  53.2195 314.9643 0001615  88.8559 271.2618 15.08857053102723,6917.828,95.436,540.81,538.576,0.0
